start=new Date('2022-06-06T00:00:00.000Z').valueOf();
sats=[{"EPOCH":"2022-06-05T22:00:00.999936","ELEMENT_SET_NO":"999","GP_ID":"205447114","APOAPSIS":"541.482","ECCENTRICITY":"0.00025510","SITE":"AFETR","TIME_SYSTEM":"UTC","CLASSIFICATION_TYPE":"U","OBJECT_NAME":"STARLINK-3153","OBJECT_TYPE":"PAYLOAD","RA_OF_ASC_NODE":"271.7320","COUNTRY_CODE":"US","CENTER_NAME":"EARTH","ARG_OF_PERICENTER":"24.5532","INCLINATION":"53.2167","TLE_LINE2":"2 49431  53.2167 271.7320 0002551  24.5532 234.7389 15.08849197  1305","TLE_LINE1":"1 49431U 21104Z   22156.91667824 -.00021271  00000-0 -13219-2 0  9991","MEAN_MOTION":"15.08849197","MEAN_ELEMENT_THEORY":"SGP4","DECAY_DATE":null,"LAUNCH_DATE":"2021-11-13","REF_FRAME":"TEME","PERIOD":"95.437","REV_AT_EPOCH":"130","MEAN_MOTION_DDOT":"0.0000000000000","FILE":"3482995","RCS_SIZE":"LARGE","EPHEMERIS_TYPE":"0","MEAN_MOTION_DOT":"-0.00021271","NORAD_CAT_ID":"49431","BSTAR":"-0.00132190000000","OBJECT_ID":"2021-104Z","PERIAPSIS":"537.953","MEAN_ANOMALY":"234.7389","SEMIMAJOR_AXIS":"6917.852"},{"MEAN_MOTION_DOT":"-0.00028404","EPHEMERIS_TYPE":"0","NORAD_CAT_ID":"49432","BSTAR":"-0.00177230000000","MEAN_ANOMALY":"201.5768","SEMIMAJOR_AXIS":"6917.804","OBJECT_ID":"2021-104AA","PERIAPSIS":"538.101","TLE_LINE1":"1 49432U 21104AA  22156.91667824 -.00028404  00000-0 -17723-2 0  9991","MEAN_MOTION":"15.08864932","MEAN_ELEMENT_THEORY":"SGP4","DECAY_DATE":null,"INCLINATION":"53.2138","TLE_LINE2":"2 49432  53.2138 261.7496 0002267  32.6853 201.5768 15.08864932  1304","REV_AT_EPOCH":"130","MEAN_MOTION_DDOT":"0.0000000000000","FILE":"3482995","RCS_SIZE":"LARGE","LAUNCH_DATE":"2021-11-13","REF_FRAME":"TEME","PERIOD":"95.436","CLASSIFICATION_TYPE":"U","OBJECT_NAME":"STARLINK-3158","RA_OF_ASC_NODE":"261.7496","OBJECT_TYPE":"PAYLOAD","SITE":"AFETR","TIME_SYSTEM":"UTC","ARG_OF_PERICENTER":"32.6853","COUNTRY_CODE":"US","CENTER_NAME":"EARTH","EPOCH":"2022-06-05T22:00:00.999936","GP_ID":"205447364","ECCENTRICITY":"0.00022670","APOAPSIS":"541.237","ELEMENT_SET_NO":"999"},{"EPOCH":"2022-06-05T22:00:00.999936","ELEMENT_SET_NO":"999","ECCENTRICITY":"0.00021040","APOAPSIS":"541.174","GP_ID":"205448615","TIME_SYSTEM":"UTC","SITE":"AFETR","OBJECT_TYPE":"PAYLOAD","RA_OF_ASC_NODE":"251.7387","OBJECT_NAME":"STARLINK-3079","CLASSIFICATION_TYPE":"U","CENTER_NAME":"EARTH","COUNTRY_CODE":"US","ARG_OF_PERICENTER":"36.8617","TLE_LINE2":"2 49433  53.2155 251.7387 0002104  36.8617 197.6213 15.08848712  1304","INCLINATION":"53.2155","DECAY_DATE":null,"MEAN_ELEMENT_THEORY":"SGP4","MEAN_MOTION":"15.08848712","TLE_LINE1":"1 49433U 21104AB  22156.91667824 -.00031214  00000-0 -19511-2 0  9992","PERIOD":"95.437","REF_FRAME":"TEME","LAUNCH_DATE":"2021-11-13","RCS_SIZE":"LARGE","FILE":"3482995","MEAN_MOTION_DDOT":"0.0000000000000","REV_AT_EPOCH":"130","BSTAR":"-0.00195110000000","NORAD_CAT_ID":"49433","MEAN_MOTION_DOT":"-0.00031214","EPHEMERIS_TYPE":"0","PERIAPSIS":"538.263","OBJECT_ID":"2021-104AB","SEMIMAJOR_AXIS":"6917.854","MEAN_ANOMALY":"197.6213"},{"REV_AT_EPOCH":"130","MEAN_MOTION_DDOT":"0.0000000000000","FILE":"3482995","RCS_SIZE":"LARGE","LAUNCH_DATE":"2021-11-13","REF_FRAME":"TEME","PERIOD":"95.437","TLE_LINE1":"1 49434U 21104AC  22156.91667824 -.00019618  00000-0 -12173-2 0  9994","MEAN_MOTION":"15.08854421","MEAN_ELEMENT_THEORY":"SGP4","DECAY_DATE":null,"INCLINATION":"53.2156","TLE_LINE2":"2 49434  53.2156 271.7485 0002432  28.3477  36.1535 15.08854421  1309","MEAN_ANOMALY":"36.1535","SEMIMAJOR_AXIS":"6917.836","OBJECT_ID":"2021-104AC","PERIAPSIS":"538.019","EPHEMERIS_TYPE":"0","MEAN_MOTION_DOT":"-0.00019618","NORAD_CAT_ID":"49434","BSTAR":"-0.00121730000000","GP_ID":"205448866","APOAPSIS":"541.384","ECCENTRICITY":"0.00024320","ELEMENT_SET_NO":"999","EPOCH":"2022-06-05T22:00:00.999936","ARG_OF_PERICENTER":"28.3477","COUNTRY_CODE":"US","CENTER_NAME":"EARTH","CLASSIFICATION_TYPE":"U","OBJECT_NAME":"STARLINK-3134","RA_OF_ASC_NODE":"271.7485","OBJECT_TYPE":"PAYLOAD","SITE":"AFETR","TIME_SYSTEM":"UTC"},{"TLE_LINE1":"1 49435U 21104AD  22156.91667824 -.00048323  00000-0 -30369-2 0  9997","MEAN_MOTION":"15.08859355","MEAN_ELEMENT_THEORY":"SGP4","DECAY_DATE":null,"INCLINATION":"53.2148","TLE_LINE2":"2 49435  53.2148 251.7485 0001997  38.3661 170.9351 15.08859355  1304","MEAN_MOTION_DDOT":"0.0000000000000","REV_AT_EPOCH":"130","FILE":"3482995","RCS_SIZE":"LARGE","LAUNCH_DATE":"2021-11-13","REF_FRAME":"TEME","PERIOD":"95.436","EPHEMERIS_TYPE":"0","MEAN_MOTION_DOT":"-0.00048323","NORAD_CAT_ID":"49435","BSTAR":"-0.00303690000000","MEAN_ANOMALY":"170.9351","SEMIMAJOR_AXIS":"6917.821","PERIAPSIS":"538.305","OBJECT_ID":"2021-104AD","EPOCH":"2022-06-05T22:00:00.999936","GP_ID":"205447614","APOAPSIS":"541.068","ECCENTRICITY":"0.00019970","ELEMENT_SET_NO":"999","CLASSIFICATION_TYPE":"U","OBJECT_NAME":"STARLINK-3117","RA_OF_ASC_NODE":"251.7485","OBJECT_TYPE":"PAYLOAD","SITE":"AFETR","TIME_SYSTEM":"UTC","ARG_OF_PERICENTER":"38.3661","COUNTRY_CODE":"US","CENTER_NAME":"EARTH"},{"DECAY_DATE":null,"MEAN_ELEMENT_THEORY":"SGP4","MEAN_MOTION":"15.08855029","TLE_LINE1":"1 49436U 21104AE  22156.91667824 -.00047153  00000-0 -29628-2 0  9994","TLE_LINE2":"2 49436  53.2149 251.7330 0001839  36.6482 177.8583 15.08855029  1309","INCLINATION":"53.2149","RCS_SIZE":"LARGE","FILE":"3482995","REV_AT_EPOCH":"130","MEAN_MOTION_DDOT":"0.0000000000000","PERIOD":"95.437","REF_FRAME":"TEME","LAUNCH_DATE":"2021-11-13","BSTAR":"-0.00296280000000","NORAD_CAT_ID":"49436","MEAN_MOTION_DOT":"-0.00047153","EPHEMERIS_TYPE":"0","SEMIMAJOR_AXIS":"6917.834","MEAN_ANOMALY":"177.8583","PERIAPSIS":"538.427","OBJECT_ID":"2021-104AE","EPOCH":"2022-06-05T22:00:00.999936","ECCENTRICITY":"0.00018390","APOAPSIS":"540.972","GP_ID":"205447864","ELEMENT_SET_NO":"999","OBJECT_TYPE":"PAYLOAD","RA_OF_ASC_NODE":"251.7330","OBJECT_NAME":"STARLINK-3049","CLASSIFICATION_TYPE":"U","TIME_SYSTEM":"UTC","SITE":"AFETR","ARG_OF_PERICENTER":"36.6482","CENTER_NAME":"EARTH","COUNTRY_CODE":"US"},{"REV_AT_EPOCH":"130","MEAN_MOTION_DDOT":"0.0000000000000","FILE":"3482995","RCS_SIZE":"LARGE","LAUNCH_DATE":"2021-11-13","REF_FRAME":"TEME","PERIOD":"95.437","MEAN_MOTION":"15.08850993","TLE_LINE1":"1 49437U 21104AF  22156.91667824 -.00039342  00000-0 -24665-2 0  9992","MEAN_ELEMENT_THEORY":"SGP4","DECAY_DATE":null,"INCLINATION":"53.2165","TLE_LINE2":"2 49437  53.2165 251.7495 0002292  29.7985 224.7028 15.08850993  1306","MEAN_ANOMALY":"224.7028","SEMIMAJOR_AXIS":"6917.847","OBJECT_ID":"2021-104AF","PERIAPSIS":"538.126","EPHEMERIS_TYPE":"0","MEAN_MOTION_DOT":"-0.00039342","NORAD_CAT_ID":"49437","BSTAR":"-0.00246650000000","GP_ID":"205448116","ECCENTRICITY":"0.00022920","APOAPSIS":"541.297","ELEMENT_SET_NO":"999","EPOCH":"2022-06-05T22:00:00.999936","ARG_OF_PERICENTER":"29.7985","COUNTRY_CODE":"US","CENTER_NAME":"EARTH","CLASSIFICATION_TYPE":"U","OBJECT_NAME":"STARLINK-3130","OBJECT_TYPE":"PAYLOAD","RA_OF_ASC_NODE":"251.7495","SITE":"AFETR","TIME_SYSTEM":"UTC"},{"MEAN_ANOMALY":"242.5671","SEMIMAJOR_AXIS":"6917.787","PERIAPSIS":"537.830","OBJECT_ID":"2021-104AG","EPHEMERIS_TYPE":"0","MEAN_MOTION_DOT":"-0.00031381","BSTAR":"-0.00196040000000","NORAD_CAT_ID":"49438","MEAN_MOTION_DDOT":"0.0000000000000","REV_AT_EPOCH":"130","RCS_SIZE":"LARGE","FILE":"3482995","REF_FRAME":"TEME","LAUNCH_DATE":"2021-11-13","PERIOD":"95.436","MEAN_ELEMENT_THEORY":"SGP4","MEAN_MOTION":"15.08870634","TLE_LINE1":"1 49438U 21104AG  22156.91667824 -.00031381  00000-0 -19604-2 0  9995","DECAY_DATE":null,"TLE_LINE2":"2 49438  53.2149 251.7480 0002634  31.8141 242.5671 15.08870634  1307","INCLINATION":"53.2149","ARG_OF_PERICENTER":"31.8141","COUNTRY_CODE":"US","CENTER_NAME":"EARTH","CLASSIFICATION_TYPE":"U","OBJECT_TYPE":"PAYLOAD","RA_OF_ASC_NODE":"251.7480","OBJECT_NAME":"STARLINK-3044","SITE":"AFETR","TIME_SYSTEM":"UTC","GP_ID":"205448367","ECCENTRICITY":"0.00026340","APOAPSIS":"541.474","ELEMENT_SET_NO":"999","EPOCH":"2022-06-05T22:00:00.999936"},{"EPOCH":"2022-06-05T22:00:00.999936","ELEMENT_SET_NO":"999","ECCENTRICITY":"0.00024820","APOAPSIS":"541.429","GP_ID":"205447115","TIME_SYSTEM":"UTC","SITE":"AFETR","OBJECT_NAME":"STARLINK-3108","OBJECT_TYPE":"PAYLOAD","RA_OF_ASC_NODE":"251.7408","CLASSIFICATION_TYPE":"U","CENTER_NAME":"EARTH","COUNTRY_CODE":"US","ARG_OF_PERICENTER":"29.3443","INCLINATION":"53.2168","TLE_LINE2":"2 49439  53.2168 251.7408 0002482  29.3443 345.1430 15.08850809  1302","DECAY_DATE":null,"MEAN_MOTION":"15.08850809","TLE_LINE1":"1 49439U 21104AH  22156.91667824 -.00031450  00000-0 -19659-2 0  9993","MEAN_ELEMENT_THEORY":"SGP4","PERIOD":"95.437","LAUNCH_DATE":"2021-11-13","REF_FRAME":"TEME","FILE":"3482995","RCS_SIZE":"LARGE","REV_AT_EPOCH":"130","MEAN_MOTION_DDOT":"0.0000000000000","NORAD_CAT_ID":"49439","BSTAR":"-0.00196590000000","MEAN_MOTION_DOT":"-0.00031450","EPHEMERIS_TYPE":"0","PERIAPSIS":"537.995","OBJECT_ID":"2021-104AH","SEMIMAJOR_AXIS":"6917.847","MEAN_ANOMALY":"345.1430"},{"EPOCH":"2022-06-05T22:00:00.999936","ELEMENT_SET_NO":"999","GP_ID":"205447365","ECCENTRICITY":"0.00026100","APOAPSIS":"541.515","SITE":"AFETR","TIME_SYSTEM":"UTC","CLASSIFICATION_TYPE":"U","OBJECT_NAME":"STARLINK-3105","RA_OF_ASC_NODE":"251.7528","OBJECT_TYPE":"PAYLOAD","COUNTRY_CODE":"US","CENTER_NAME":"EARTH","ARG_OF_PERICENTER":"24.9878","INCLINATION":"53.2155","TLE_LINE2":"2 49440  53.2155 251.7528 0002610  24.9878 269.4848 15.08851877  1306","MEAN_MOTION":"15.08851877","TLE_LINE1":"1 49440U 21104AJ  22156.91667824 -.00032460  00000-0 -20298-2 0  9998","MEAN_ELEMENT_THEORY":"SGP4","DECAY_DATE":null,"LAUNCH_DATE":"2021-11-13","REF_FRAME":"TEME","PERIOD":"95.437","REV_AT_EPOCH":"130","MEAN_MOTION_DDOT":"0.0000000000000","FILE":"3482995","RCS_SIZE":"LARGE","EPHEMERIS_TYPE":"0","MEAN_MOTION_DOT":"-0.00032460","NORAD_CAT_ID":"49440","BSTAR":"-0.00202980000000","OBJECT_ID":"2021-104AJ","PERIAPSIS":"537.904","MEAN_ANOMALY":"269.4848","SEMIMAJOR_AXIS":"6917.844"}];
